255P/Levy,e,13.4118,275.6581,186.0140,2.942237,0.1952935,0.71157080,44.6629,04/24.0/2023,2000,g 14.1,4.0
# From MPEC 2023-HD1
256P/LINEAR,e,27.6196,81.3290,124.1898,4.639682,0.0986215,0.41799622,4.2193,04/24.0/2023,2000,g 14.5,4.0
# From MPEC 2023-A50
257P/Catalina,e,20.2197,207.7146,117.7727,3.764710,0.1349295,0.42985457,128.9245,04/24.0/2023,2000,g 11.5,4.0
# From MPEC 2021-U31
258P/PANSTARRS,e,6.7475,126.2347,25.7199,4.393410,0.1070290,0.20853296,111.3870,04/24.0/2023,2000,g 13.0,4.0
# From MPC106349
259P/Garradd,e,15.8973,51.4322,257.5265,2.729143,0.2186073,0.33886864,96.1552,04/24.0/2023,2000,g 15.5,4.0
# From MPEC 2022-O01
260P/McNaught,e,15.0543,349.3337,18.4560,3.623365,0.1429012,0.60931609,188.7784,04/24.0/2023,2000,g 13.5,4.0
# From MPEC 2021-J28
261P/Larson,e,6.0718,291.1001,67.2863,3.490534,0.1511354,0.42327408,212.2109,04/24.0/2023,2000,g 14.0,4.0
# From MPC 82322
262P/McNaught-Russell,e,29.2949,217.8627,171.0651,6.871194,0.0547212,0.81633814,207.3893,04/24.0/2023,2000,g 13.5,4.0
# From MPEC 2023-HD1
263P/Gibbs,e,11.5216,105.5074,35.0482,3.041883,0.1857763,0.59357210,15.4963,04/24.0/2023,2000,g 17.3,4.0
# From MPC114608
264P/Larsen,e,25.6960,219.9227,346.6225,3.881797,0.1288709,0.37685857,175.6451,04/24.0/2023,2000,g 13.0,4.0
# From MPC 79870
265P/LINEAR,e,14.3603,342.9266,33.4996,4.257125,0.1122095,0.64757883,90.1923,04/24.0/2023,2000,g 14.5,4.0
# From MPEC 2021-F20
266P/Christensen,e,3.4269,4.9873,97.6718,3.530975,0.1485464,0.34008824,163.3265,04/24.0/2023,2000,g 14.7,4.0
# From MPC114608
267P/LONEOS,e,6.1441,228.5653,114.2476,3.210357,0.1713460,0.61434313,297.1546,04/24.0/2023,2000,g 19.5,4.0
# From MPC 92277
268P/Bernardi,e,15.6764,126.1664,359.8313,4.591459,0.1001793,0.47670256,299.4245,04/24.0/2023,2000,g 14.0,4.0
# From MPC104795
269P/Jedicke,e,7.0820,241.7542,225.6797,7.067033,0.0524624,0.43188758,164.0557,04/24.0/2023,2000,g 10.0,4.0
# From MPC 88332
270P/Gehrels,e,2.9247,223.0414,209.7697,6.657259,0.0573800,0.46928379,206.7001,04/24.0/2023,2000,g  8.0,4.0
# From MPC 92277
271P/van Houten-Lemmon,e,6.8715,9.3133,36.4430,7.035257,0.0528183,0.39586491,188.2967,04/24.0/2023,2000,g 11.0,4.0
# From MPEC 2023-D41
272P/NEAT,e,18.0729,109.4605,27.8936,4.461876,0.1045750,0.45493122,29.3825,04/24.0/2023,2000,g 16.0,2.0
# From MPC 82723
273P/Pons-Gambart,e,136.6446,320.3909,20.2837,31.98493,0.0054486,0.97441112,0.0000,12/22.1111/2012,2000,g 11.5,4.0
# From MPEC 2023-HD1
274P/Tombaugh-Tenagra,e,15.8160,81.3266,38.4744,4.377552,0.1076111,0.43966293,40.9481,04/24.0/2023,2000,g 13.9,4.0
# From MPC 81862
275P/Hermann,e,21.2675,348.7514,173.9367,5.781459,0.0709003,0.71304465,268.9223,04/24.0/2023,2000,g 17.0,4.0
# From MPEC 2023-A50
276P/Vorobjov,e,14.8118,211.3429,199.4623,5.327097,0.0801619,0.26822204,312.0232,04/24.0/2023,2000,g 11.5,4.0
# From MPEC 2021-F20
277P/LINEAR,e,16.7805,276.2966,152.3458,3.853527,0.1302916,0.50622415,110.0330,04/24.0/2023,2000,g 15.1,4.0
# From MPEC 2021-S45
278P/McNaught,e,6.6951,15.3741,237.5464,3.680352,0.1395951,0.43731457,133.2232,04/24.0/2023,2000,g 14.0,4.0
# From MPEC 2022-K19
279P/LaSagra,e,5.0520,346.2332,5.8525,3.574484,0.1458425,0.39904135,0.6467,04/24.0/2023,2000,g 14.0,4.0
# From MPEC 2023-G31
280P/Larsen,e,11.7721,131.3838,104.7419,4.530089,0.1022219,0.41719743,349.4976,04/24.0/2023,2000,g 12.5,4.0
# From MPEC 2023-D41
281P/MOSS,e,4.7180,87.1776,26.6517,4.878652,0.0914649,0.17303548,7.4547,04/24.0/2023,2000,g 11.0,4.0
# From MPC133426
282P/,e,5.8118,9.2946,217.6065,4.237867,0.1129752,0.18797483,61.7547,04/24.0/2023,2000,g 13.5,2.0
# From MPEC 2022-K19
283P/Spacewatch,e,14.4560,161.1260,22.2088,4.135044,0.1172152,0.48440716,69.5287,04/24.0/2023,2000,g 16.0,2.0
# From MPEC 2023-D41
284P/McNaught,e,11.8606,144.2647,202.4412,3.676373,0.1398217,0.37527659,82.2788,04/24.0/2023,2000,g 13.0,4.0
# From MPEC 2023-B57
285P/LINEAR,e,25.0378,185.5064,178.4066,4.509600,0.1029193,0.61875474,10.4724,04/24.0/2023,2000,g 15.0,4.0
# From MPEC 2022-X67
286P/Christensen,e,17.0426,283.8367,24.9099,4.113748,0.1181266,0.42639770,40.9233,04/24.0/2023,2000,g 14.0,4.0
# From MPEC 2023-A50
287P/Christensen,e,16.3217,139.0428,189.1260,4.163598,0.1160115,0.27126119,351.5224,04/24.0/2023,2000,g 13.5,4.0
# From MPC133426
288P/,e,3.2383,83.1233,280.2090,3.048189,0.1852001,0.20046424,77.4815,04/24.0/2023,2000,g 16.0,2.0
# From MPEC 2023-HD1
289P/Blanpain,e,5.8995,68.8882,9.8414,3.045274,0.1854661,0.68612872,226.1965,04/24.0/2023,2000,g 19.7,4.0
# From MPC 95214
290P/Jager,e,20.0302,302.6650,181.8426,6.217371,0.0635761,0.62728693,214.8304,04/24.0/2023,2000,g 10.5,4.0
# From MPEC 2023-HD1
291P/NEAT,e,6.3084,237.6584,173.5268,4.539012,0.1019206,0.43484197,358.9689,04/24.0/2023,2000,g 13.9,4.0
# From MPEC 2022-K19
292P/Li,e,24.2978,90.9185,319.5493,6.101238,0.0653999,0.58971552,220.0685,04/24.0/2023,2000,g 12.5,4.0
# From MPEC 2022-L66
293P/Spacewatch,e,9.0607,78.3990,40.9377,3.640502,0.1418934,0.41856265,121.4326,04/24.0/2023,2000,g 14.5,4.0
# From MPEC 2020-SI8
294P/LINEAR,e,17.7854,310.7824,236.6470,3.186652,0.1732615,0.60349863,214.5658,04/24.0/2023,2000,g 15.5,4.0
# From MPEC 2022-K19
295P/LINEAR,e,21.0745,7.4304,72.9011,5.304429,0.0806763,0.61718801,264.3146,04/24.0/2023,2000,g 12.0,4.0
# From MPEC 2021-N06
296P/Garradd,e,25.2534,263.5459,349.9710,3.491338,0.1510832,0.47899623,143.3252,04/24.0/2023,2000,g 14.0,4.0
# From MPC102956
297P/Beshore,e,10.3151,95.9572,135.5518,3.469641,0.1525026,0.32116219,124.2912,04/24.0/2023,2000,g 15.0,4.0
# From MPC114609
298P/Christensen,e,7.8706,52.8177,100.6167,3.589945,0.1449013,0.38625004,139.1347,04/24.0/2023,2000,g 15.0,4.0
# From MPEC 2023-HD1
299P/Catalina-PANSTARRS,e,10.4672,271.5975,323.7416,4.388776,0.1071986,0.28092728,320.0493,04/24.0/2023,2000,g 13.1,4.0
# From MPEC 2023-HD1
300P/Catalina,e,5.6740,95.6240,222.9534,2.698607,0.2223282,0.69166638,2.8648,04/24.0/2023,2000,g 17.1,4.0
# From MPC 89014
301P/LINEAR-NEAT,e,10.3368,351.1665,193.5319,5.741483,0.0716420,0.58555434,227.1588,04/24.0/2023,2000,g 13.0,4.0
# From MPEC 2023-HD1
302P/Lemmon-PANSTARRS,e,6.0336,121.7277,208.5057,4.272595,0.1116006,0.23018875,283.5881,04/24.0/2023,2000,g 13.7,4.0
# From MPC 92278
303P/NEAT,e,7.0193,347.9614,356.9968,5.043365,0.0870209,0.51084149,270.1595,04/24.0/2023,2000,g 13.5,4.0
# From MPEC 2022-K19
304P/Ory,e,2.6075,58.9077,335.2706,3.150698,0.1762357,0.60096169,173.4088,04/24.0/2023,2000,g 16.5,4.0
# From MPC101100
305P/Skiff,e,11.6689,240.1031,147.3793,4.639308,0.0986335,0.69399994,303.4736,04/24.0/2023,2000,g 18.0,4.0
# From MPC 92278
306P/LINEAR,e,8.3077,341.3722,0.8907,3.124249,0.1784784,0.59305935,211.8093,04/24.0/2023,2000,g 19.0,4.0
# From MPC 92278
307P/LINEAR,e,4.4350,158.1587,222.1782,5.789234,0.0707575,0.67555314,215.1462,04/24.0/2023,2000,g 15.0,4.0
# From MPEC 2022-C56
308P/Lagerkvist-Carsenty,e,4.8548,63.0383,333.6877,6.599701,0.0581323,0.36464603,168.8212,04/24.0/2023,2000,g 13.0,2.0
# From MPC 94284
309P/LINEAR,e,17.0240,10.1435,49.9450,4.373373,0.1077654,0.61824549,323.3515,04/24.0/2023,2000,g 15.0,4.0
# From MPEC 2022-QD9
310P/Hill,e,13.1274,8.9218,31.6911,4.185127,0.1151174,0.42265196,338.9396,04/24.0/2023,2000,g 13.5,4.0
# From MPEC 2021-BE3
311P/PANSTARRS,e,4.9698,279.2093,144.4643,2.188359,0.3044573,0.11591675,282.8129,04/24.0/2023,2000,g 17.0,4.0
# From MPEC 2021-BE3
312P/NEAT,e,19.7615,144.6702,207.6676,3.469949,0.1524823,0.42760496,143.4577,04/24.0/2023,2000,g 16.0,4.0
# From MPEC 2021-S45
313P/Gibbs,e,10.9787,105.9490,254.8768,3.164188,0.1751099,0.23490138,193.1120,04/24.0/2023,2000,g 15.0,4.0
# From MPC105243
314P/Montani,e,3.9870,267.6075,213.9053,7.256474,0.0504215,0.41699158,120.4553,04/24.0/2023,2000,g  9.5,4.0
# From MPEC 2021-N06
315P/LONEOS,e,17.7342,68.7531,65.7518,4.939818,0.0897713,0.52111909,210.1816,04/24.0/2023,2000,g 11.0,4.0
# From MPC 92279
316P/LONEOS-Christensen,e,9.8306,246.1812,191.3993,4.390912,0.1071203,0.15623426,299.8479,04/24.0/2023,2000,g 13.5,4.0
# From MPEC 2020-C98
317P/WISE,e,11.9554,275.4784,334.8259,2.962167,0.1933258,0.57067594,181.7676,04/24.0/2023,2000,g 17.5,4.0
# From MPC102103
318P/McNaught-Hartley,e,17.8893,35.5022,313.3482,7.506016,0.0479281,0.67491883,131.1695,04/24.0/2023,2000,g  8.5,6.0
# From MPC 97499
319P/Catalina-McNaught,e,15.0955,111.3614,203.6580,3.564704,0.1464431,0.66650692,56.9119,04/24.0/2023,2000,g 15.0,4.0
# From MPC 96281
320P/McNaught,e,4.9045,295.9488,0.7838,3.094453,0.1810624,0.68514659,149.7748,04/24.0/2023,2000,g 20.5,4.0
# From MPC105243
321P/SOHO,e,20.0794,165.0180,172.7452,2.423057,0.2613115,0.98107178,0.0000,10/26.6065/2023,2000,g 20.0,4.0
# From MPC102103
322P/SOHO,e,11.4647,351.4933,56.9202,2.507375,0.2482419,0.97997776,0.0000,08/21.0865/2023,2000,g 19.0,4.0
# From MPEC 2016-Y36
323P/SOHO,e,5.3160,324.4129,353.0285,2.583318,0.2373763,0.98473249,0.0000,03/14.4382/2025,2000,g 20.0,4.0
# From MPEC 2021-W31
324P/LaSagra,e,21.4025,270.5846,57.5459,3.094747,0.1810366,0.15358217,130.1604,04/24.0/2023,2000,g 13.0,4.0
# From MPEC 2022-TA0
325P/Yang-Gao,e,16.6998,257.4465,343.9226,3.528325,0.1487137,0.59356212,58.0984,04/24.0/2023,2000,g 14.0,4.0
# From MPC103849
326P/Hill,e,2.4711,99.8084,278.6510,4.063103,0.1203420,0.31837159,329.8540,04/24.0/2023,2000,g 13.5,4.0
# From MPEC 2023-B57
327P/VanNess,e,36.2504,173.9838,185.0184,3.561855,0.1466188,0.56313729,34.2560,04/24.0/2023,2000,g 16.0,4.0
# From MPC109148
328P/LONEOS-Tucker,e,17.6722,341.6203,30.6015,4.190120,0.1149117,0.55273350,307.0358,04/24.0/2023,2000,g 14.5,4.0
# From MPC101101
329P/LINEAR-Catalina,e,21.7102,87.6542,343.5556,5.187571,0.0834177,0.67834230,225.2235,04/24.0/2023,2000,g 13.5,4.0
# From MPEC 2022-K19
330P/Catalina,e,15.7140,293.0810,188.8422,6.620773,0.0578550,0.54906701,140.7034,04/24.0/2023,2000,g 12.0,4.0
# From MPEC 2022-C56
331P/Gibbs,e,9.7398,216.7517,184.5952,3.005208,0.1891874,0.04131054,176.3226,04/24.0/2023,2000,g 12.0,4.0
# From MPEC 2016-K18
332P/Ikeya-Murakami,e,9.3803,3.7824,152.2956,3.087485,0.1816756,0.48930422,111.4984,04/24.0/2023,2000,g 18.0,4.0
# From MPEC 2016-EI8
